satname,norad_id,inclination_deg,eccentricity,mean_motion_rev_per_day,perigee_km,apogee_km,l1,l2
STARLINK-1454,45671,53.0525,0.0006738,15.46842943,421.38371984936657,430.55293218670795,1 45671U 20035Q   26047.58453903  .00073990  00000+0  14435-2 0  9995,2 45671  53.0525 153.9343 0006738 336.8196  23.2506 15.46842943315646
STARLINK-1456,45673,53.0509,0.000343,15.45203506,428.44471707631965,433.1156342588274,1 45673U 20035S   26047.64671274  .00051343  00000+0  10660-2 0  9991,2 45673  53.0509 147.1201 0003430 273.0636  86.9977 15.45203506315761
STARLINK-1457,45674,53.0479,0.000888,15.73170727,343.86718855762956,355.8160786108747,1 45674U 20035T   26047.91668981  .00074598  00000+0  53070-3 0  9993,2 45674  53.0479 126.0337 0008880 350.3980 302.9821 15.73170727  5943
STARLINK-1458,45675,53.0531,0.0004117,15.40217611,442.65724550980576,448.27580065071015,1 45675U 20035U   26047.91668981  .00031236  00000+0  77219-3 0  9997,2 45675  53.0531 153.9277 0004117   9.7943 258.9247 15.40217611  5825
STARLINK-1460,45676,53.0572,0.0001386,15.07012518,544.3753211511121,546.2945075657726,1 45676U 20035V   26047.80130223  .00076582  00000+0  50209-2 0  9991,2 45676  53.0572 160.3843 0001386  98.6511 261.4635 15.07012518315540
STARLINK-1392,45677,53.0568,0.0001336,15.06390496,546.3154560236826,548.1659169415107,1 45677U 20035W   26047.74670215 -.00000003  00000+0  18720-4 0  9995,2 45677  53.0568 160.6345 0001336  88.4311 271.6831 15.06390496315573
STARLINK-1394,45679,53.0527,0.0002797,15.43774297,433.0763111185652,436.8875698538741,1 45679U 20035Y   26047.62800890  .00072910  00000+0  15807-2 0  9994,2 45679  53.0527 137.2656 0002797 247.9341 112.1368 15.43774297315897
STARLINK-1402,45685,53.0496,0.0002723,15.41640528,439.4102132444923,443.12406073749753,1 45685U 20035AE  26047.47587879  .00068166  00000+0  15890-2 0  9993,2 45685  53.0496 124.1408 0002723 208.8393 151.2461 15.41640528316077
STARLINK-1404,45686,53.1615,0.0001491,15.30190909,474.22037480029394,476.2640524818016,1 45686U 20035AF  26047.59920744  .00011433  00000+0  39765-3 0  9992,2 45686  53.1615 147.6627 0001491  73.2693 286.8471 15.30190909315743
STARLINK-1413,45689,53.1617,0.0001351,15.30189985,474.3190806627081,476.1708644716964,1 45689U 20035AJ  26047.54019262  .00002218  00000+0  87019-4 0  9991,2 45689  53.1617 147.8153 0001351  75.8844 284.2307 15.30189985315657
STARLINK-1417,45693,53.0523,0.0003966,15.1130494,529.4786484728029,534.9599430866147,1 45693U 20035AN  26047.57618308  .00023586  00000+0  13971-2 0  9990,2 45693  53.0523 149.9069 0003966 174.0656 186.0383 15.11304940315701
STARLINK-1420,45695,53.0544,0.0002763,15.48017951,420.64580736762764,424.4038530950129,1 45695U 20035AQ  26047.53703781  .00025725  00000+0  49058-3 0  9991,2 45695  53.0544 124.0020 0002763  33.5912 326.5270 15.48017951316075
STARLINK-1422,45696,53.1614,0.0001329,15.30192321,474.32718408787423,476.1488111622439,1 45696U 20035AR  26047.48225420 -.00000178  00000+0  61348-5 0  9999,2 45696  53.1614 148.0868 0001329  89.8010 270.3143 15.30192321315723
STARLINK-1351,45697,53.0546,0.0001654,15.49385755,417.397639258842,419.64597399207287,1 45697U 20035AS  26047.44660826  .00025941  00000+0  47162-3 0  9999,2 45697  53.0546 123.6161 0001654  63.5087 296.6090 15.49385755316072
STARLINK-1398,45699,53.0401,0.0005037,15.83062474,318.41115102932235,325.16065336099473,1 45699U 20035AU  26047.83337963  .00310314  00000+0  13721-2 0  9991,2 45699  53.0401  45.2386 0005037  40.2861  32.1425 15.83062474  5958
STARLINK-1400,45700,53.0525,0.0005605,15.46703155,422.5643501647364,430.19221179471333,1 45700U 20035AV  26047.84035527  .00079847  00000+0  15638-2 0  9998,2 45700  53.0525 122.7665 0005605  14.7849 345.3320 15.46703155316115
STARLINK-1403,45701,53.0553,0.0001281,15.06390081,546.3548173669196,548.129099456065,1 45701U 20035AW  26047.64257780 -.00000855  00000+0 -38500-4 0  9994,2 45701  53.0553 131.1053 0001281  96.8168 263.2967 15.06390081315977
STARLINK-1407,45703,53.0361,0.0013404,15.56084798,389.917011650261,408.08516343534484,1 45703U 20035AY  26047.26653175  .00049830  00000+0  70133-3 0  9993,2 45703  53.0361  59.7605 0013404  25.1031 335.0629 15.56084798316950
STARLINK-1411,45706,53.0456,0.0005133,15.5797381,390.04599141513154,396.99777642536355,1 45706U 20035BB  26047.35751757  .00080677  00000+0  10538-2 0  9997,2 45706  53.0456  85.3332 0005133  37.4770 322.6599 15.57973810316597
STARLINK-1423,45710,53.0533,0.0004706,15.48633024,417.5244806855244,423.92356868195657,1 45710U 20035BF  26047.44995626  .00075503  00000+0  13844-2 0  9992,2 45710  53.0533 124.0132 0004706  21.5848 338.5357 15.48633024316051
STARLINK-1433,45711,53.0522,0.0005131,15.50761718,411.01554057984686,417.98614553439256,1 45711U 20035BG  26047.69654364  .00083071  00000+0  14109-2 0  9995,2 45711  53.0522 122.1900 0005131  20.2885 339.8326 15.50761718316103
STARLINK-1434,45712,53.0515,0.0003297,15.24591914,489.74602300516744,494.27619866945315,1 45712U 20035BH  26047.67005227  .00049223  00000+0  19711-2 0  9997,2 45712  53.0515 117.2229 0003297   7.2707 352.8337 15.24591914316189
STARLINK-1465,45731,53.0538,0.0004194,15.4667191,423.6160692004405,429.32377348606224,1 45731U 20038B   26047.79369574  .00073926  00000+0  14515-2 0  9996,2 45731  53.0538 323.1488 0004194 130.6348 229.5024 15.46671910313144
STARLINK-1471,45735,53.0456,0.0003746,15.47638421,421.0886656378243,426.1845544264597,1 45735U 20038F   26047.79575825  .00025730  00000+0  49711-3 0  9995,2 45735  53.0456 242.0251 0003746 147.0076 213.1165 15.47638421314299
STARLINK-1474,45738,53.019,0.0008858,16.12109058,235.2006109764734,246.9271872893787,1 45738U 20038J   26047.77681087  .01093078  76337-3  98628-3 0  9996,2 45738  53.0190 169.3702 0008858 328.0350  32.0146 16.12109058315294
STARLINK-1480,45741,53.0541,0.0010663,15.44889008,424.4428859999398,438.9655533850555,1 45741U 20038M   26047.14449379  .00065586  00000+0  13690-2 0  9994,2 45741  53.0541 320.0713 0010663 105.9046 254.3136 15.44889008313141
STARLINK-1500,45744,53.0367,0.000399,15.33584567,462.39749005650356,467.8584154888167,1 45744U 20038Q   26047.70047142  .00023825  00000+0  73246-3 0  9995,2 45744  53.0367 291.1123 0003990 151.4859 208.6360 15.33584567313596
STARLINK-1504,45746,53.0217,0.0003851,15.51667761,409.241541110674,414.47119400236534,1 45746U 20038S   26047.76314443  .00031302  00000+0  52301-3 0  9992,2 45746  53.0217 243.0249 0003851 135.0637 225.0683 15.51667761314269
STARLINK-1506,45747,53.0773,0.0004312,15.25508316,486.2982610899762,492.22070381644335,1 45747U 20038T   26046.97841010  .00010175  00000+0  40909-3 0  9996,2 45747  53.0773 302.7276 0004312 154.6080 205.5130 15.25508316313374
STARLINK-1464,45751,53.054,0.0004557,15.41816628,437.640504939096,443.8552366103204,1 45751U 20038X   26046.99502611  .00050923  00000+0  11850-2 0  9991,2 45751  53.0540 307.5935 0004557 135.2605 224.8768 15.41816628313305
STARLINK-1477,45754,53.0517,0.0002024,15.13041684,525.5326657558553,528.3278369792088,1 45754U 20038AA  26046.97578017  .00023272  00000+0  13141-2 0  9997,2 45754  53.0517 311.5494 0002024  78.9437 281.1782 15.13041684313246
STARLINK-1478,45755,53.0541,0.0007653,15.50843732,409.0631396341696,419.4595845672011,1 45755U 20038AB  26047.13597546  .00079194  00000+0  13414-2 0  9992,2 45755  53.0541 301.7420 0007653 128.4142 231.7554 15.50843732313389
STARLINK-1484,45756,53.0029,0.0004851,15.89061886,301.66987646765665,308.1537704361699,1 45756U 20038AC  26047.83337963  .00234465  00000+0  78218-3 0  9993,2 45756  53.0029 163.6768 0004851 331.9564 332.2363 15.89061886  6037
STARLINK-1493,45759,53.0543,0.0002529,15.44102203,432.29455520851934,435.74014287826594,1 45759U 20038AF  26047.77307835  .00065331  00000+0  14032-2 0  9991,2 45759  53.0543 304.3779 0002529 134.5148 225.6064 15.44102203313407
STARLINK-1494,45760,53.0487,0.0001894,15.69696724,358.48858292791647,361.0409001076032,1 45760U 20038AG  26047.76514620  .00076030  00000+0  62693-3 0  9999,2 45760  53.0487 255.3170 0001894 219.2511 140.8368 15.69696724314101
STARLINK-1502,45764,53.0537,0.000177,15.44409455,431.90823324094254,434.31941603286396,1 45764U 20038AL  26047.91668981  .00147350  00000+0  30878-2 0  9993,2 45764  53.0537 305.0416 0001770  97.4630 198.4252 15.44409455  5742
STARLINK-1470,45772,53.0476,0.0002292,15.26045765,486.07335836662605,489.22063375041853,1 45772U 20038AU  26047.79471958  .00049691  00000+0  19049-2 0  9990,2 45772  53.0476 271.1485 0002292 105.5066 254.6185 15.26045765313883
STARLINK-1482,45773,53.1561,0.0001241,15.29375853,476.826122271792,478.5277352889161,1 45773U 20038AV  26047.64807902  .00003120  00000+0  12034-3 0  9992,2 45773  53.1561 288.7375 0001241  91.0061 269.1081 15.29375853313624
STARLINK-1496,45780,53.0542,0.000842,15.44241611,427.8718712956834,439.3428487980018,1 45780U 20038BC  26046.92158132  .00073102  00000+0  15584-2 0  9993,2 45780  53.0542 281.6506 0008420 128.1820 231.9945 15.44241611313648
STARLINK-1513,45786,53.1561,0.0001365,15.29418162,476.6146898263951,478.48629251148395,1 45786U 20038BJ  26047.06948101  .00016025  00000+0  56537-3 0  9993,2 45786  53.1561 291.5538 0001365  85.6836 274.4320 15.29418162313533
STARLINK-1522,46027,53.0561,0.0001273,15.06397063,546.3389614175803,548.1021574522129,1 46027U 20055A   26047.79645686  .00000162  00000+0  29754-4 0  9990,2 46027  53.0561 220.4106 0001273  90.0714 270.0421 15.06397063305734
STARLINK-1523,46028,53.0554,0.0001443,15.06395858,546.2249229720574,548.2235822295588,1 46028U 20055B   26047.74485459  .00000559  00000+0  56404-4 0  9998,2 46028  53.0554 220.6437 0001443  82.3192 277.7961 15.06395858305743
STARLINK-1526,46029,53.0558,0.000164,15.06392774,546.0979438805052,548.3694654716392,1 46029U 20055C   26047.73749037 -.00000198  00000+0  56163-5 0  9996,2 46029  53.0558 220.6758 0001640  86.3973 273.7203 15.06392774305732
